CCSDS_OMM_VERS = 2.0
CREATION_DATE  = 
ORIGINATOR     = 

OBJECT_NAME    = STARLINK-35638
OBJECT_ID      = 2025-240Z
CENTER_NAME    = EARTH
REF_FRAME      = TEME
TIME_SYSTEM    = UTC
MEAN_ELEMENT_THEORY = SGP/SGP4

EPOCH          = 2025-11-21T22:37:13.397952
MEAN_MOTION    = 15.49297330
ECCENTRICITY   = .00012184
INCLINATION    = 53.1595
RA_OF_ASC_NODE = 203.8547
ARG_OF_PERICENTER = 84.6013
MEAN_ANOMALY   = 275.5135

EPHEMERIS_TYPE = 0
CLASSIFICATION_TYPE = U
NORAD_CAT_ID   = 66169
ELEMENT_SET_NO = 999
REV_AT_EPOCH   = 548
BSTAR          = .13136426E-2
MEAN_MOTION_DOT = .73269E-3
MEAN_MOTION_DDOT = 0

CCSDS_OMM_VERS = 2.0
CREATION_DATE  = 
ORIGINATOR     = 

OBJECT_NAME    = STARLINK-35585
OBJECT_ID      = 2025-240AA
CENTER_NAME    = EARTH
REF_FRAME      = TEME
TIME_SYSTEM    = UTC
MEAN_ELEMENT_THEORY = SGP/SGP4

EPOCH          = 2025-11-22T12:32:48.274080
MEAN_MOTION    = 15.47329942
ECCENTRICITY   = .0006472
INCLINATION    = 53.1595
RA_OF_ASC_NODE = 201.0775
ARG_OF_PERICENTER = 185.8456
MEAN_ANOMALY   = 174.2477

EPHEMERIS_TYPE = 0
CLASSIFICATION_TYPE = U
NORAD_CAT_ID   = 66170
ELEMENT_SET_NO = 999
REV_AT_EPOCH   = 557
BSTAR          = .18668E-2
MEAN_MOTION_DOT = .97735E-3
MEAN_MOTION_DDOT = 0

CCSDS_OMM_VERS = 2.0
CREATION_DATE  = 
ORIGINATOR     = 

OBJECT_NAME    = STARLINK-35606
OBJECT_ID      = 2025-240AB
CENTER_NAME    = EARTH
REF_FRAME      = TEME
TIME_SYSTEM    = UTC
MEAN_ELEMENT_THEORY = SGP/SGP4

EPOCH          = 2025-11-22T01:41:01.751424
MEAN_MOTION    = 15.49309655
ECCENTRICITY   = .00011086
INCLINATION    = 53.1592
RA_OF_ASC_NODE = 203.2283
ARG_OF_PERICENTER = 77.6011
MEAN_ANOMALY   = 282.5122

EPHEMERIS_TYPE = 0
CLASSIFICATION_TYPE = U
NORAD_CAT_ID   = 66171
ELEMENT_SET_NO = 999
REV_AT_EPOCH   = 550
BSTAR          = .7154662E-3
MEAN_MOTION_DOT = .39545E-3
MEAN_MOTION_DDOT = 0

CCSDS_OMM_VERS = 2.0
CREATION_DATE  = 
ORIGINATOR     = 

OBJECT_NAME    = STARLINK-35627
OBJECT_ID      = 2025-240AC
CENTER_NAME    = EARTH
REF_FRAME      = TEME
TIME_SYSTEM    = UTC
MEAN_ELEMENT_THEORY = SGP/SGP4

EPOCH          = 2025-11-21T22:36:43.698816
MEAN_MOTION    = 15.49304178
ECCENTRICITY   = .00009148
INCLINATION    = 53.1594
RA_OF_ASC_NODE = 203.8523
ARG_OF_PERICENTER = 61.0310
MEAN_ANOMALY   = 299.0791

EPHEMERIS_TYPE = 0
CLASSIFICATION_TYPE = U
NORAD_CAT_ID   = 66172
ELEMENT_SET_NO = 999
REV_AT_EPOCH   = 548
BSTAR          = .12044614E-2
MEAN_MOTION_DOT = .67105E-3
MEAN_MOTION_DDOT = 0

CCSDS_OMM_VERS = 2.0
CREATION_DATE  = 
ORIGINATOR     = 

OBJECT_NAME    = STARLINK-35634
OBJECT_ID      = 2025-240AD
CENTER_NAME    = EARTH
REF_FRAME      = TEME
TIME_SYSTEM    = UTC
MEAN_ELEMENT_THEORY = SGP/SGP4

EPOCH          = 2025-11-22T01:40:32.077344
MEAN_MOTION    = 15.49309588
ECCENTRICITY   = .00011576
INCLINATION    = 53.1595
RA_OF_ASC_NODE = 203.2272
ARG_OF_PERICENTER = 72.1788
MEAN_ANOMALY   = 287.9347

EPHEMERIS_TYPE = 0
CLASSIFICATION_TYPE = U
NORAD_CAT_ID   = 66173
ELEMENT_SET_NO = 999
REV_AT_EPOCH   = 550
BSTAR          = .64467432E-3
MEAN_MOTION_DOT = .3557E-3
MEAN_MOTION_DDOT = 0

CCSDS_OMM_VERS = 2.0
CREATION_DATE  = 
ORIGINATOR     = 

OBJECT_NAME    = HTV-X1
OBJECT_ID      = 2025-241A
CENTER_NAME    = EARTH
REF_FRAME      = TEME
TIME_SYSTEM    = UTC
MEAN_ELEMENT_THEORY = SGP/SGP4

EPOCH          = 2025-11-22T06:52:52.156128
MEAN_MOTION    = 15.48986583
ECCENTRICITY   = .00039276
INCLINATION    = 51.6321
RA_OF_ASC_NODE = 243.7129
ARG_OF_PERICENTER = 154.7163
MEAN_ANOMALY   = 205.4019

EPHEMERIS_TYPE = 0
CLASSIFICATION_TYPE = U
NORAD_CAT_ID   = 66174
ELEMENT_SET_NO = 999
REV_AT_EPOCH   = 145
BSTAR          = .29633503E-3
MEAN_MOTION_DOT = .15903E-3
MEAN_MOTION_DDOT = 0

CCSDS_OMM_VERS = 2.0
CREATION_DATE  = 
ORIGINATOR     = 

OBJECT_NAME    = GAOFEN-14 02
OBJECT_ID      = 2025-242A
CENTER_NAME    = EARTH
REF_FRAME      = TEME
TIME_SYSTEM    = UTC
MEAN_ELEMENT_THEORY = SGP/SGP4

EPOCH          = 2025-11-14T11:10:24.597408
MEAN_MOTION    = 15.27766001
ECCENTRICITY   = .00110173
INCLINATION    = 97.4386
RA_OF_ASC_NODE = 30.6022
ARG_OF_PERICENTER = 193.9078
MEAN_ANOMALY   = 166.1859

EPHEMERIS_TYPE = 0
CLASSIFICATION_TYPE = U
NORAD_CAT_ID   = 66175
ELEMENT_SET_NO = 999
REV_AT_EPOCH   = 295
BSTAR          = .52317515E-3
MEAN_MOTION_DOT = .14152E-3
MEAN_MOTION_DDOT = 0

CCSDS_OMM_VERS = 2.0
CREATION_DATE  = 
ORIGINATOR     = 

OBJECT_NAME    = CZ-3B R/B
OBJECT_ID      = 2025-242B
CENTER_NAME    = EARTH
REF_FRAME      = TEME
TIME_SYSTEM    = UTC
MEAN_ELEMENT_THEORY = SGP/SGP4

EPOCH          = 2025-11-05T15:49:27.402816
MEAN_MOTION    = 15.41457457
ECCENTRICITY   = .01037786
INCLINATION    = 97.4571
RA_OF_ASC_NODE = 21.8726
ARG_OF_PERICENTER = 5.1082
MEAN_ANOMALY   = 355.1197

EPHEMERIS_TYPE = 0
CLASSIFICATION_TYPE = U
NORAD_CAT_ID   = 66176
ELEMENT_SET_NO = 999
REV_AT_EPOCH   = 162
BSTAR          = .58814912E-3
MEAN_MOTION_DOT = .29904E-3
MEAN_MOTION_DDOT = 0

CCSDS_OMM_VERS = 2.0
CREATION_DATE  = 
ORIGINATOR     = 

OBJECT_NAME    = STARLINK-35352
OBJECT_ID      = 2025-243A
CENTER_NAME    = EARTH
REF_FRAME      = TEME
TIME_SYSTEM    = UTC
MEAN_ELEMENT_THEORY = SGP/SGP4

EPOCH          = 2025-11-22T20:00:01.999008
MEAN_MOTION    = 15.49425313
ECCENTRICITY   = .0001241
INCLINATION    = 53.1595
RA_OF_ASC_NODE = 21.9655
ARG_OF_PERICENTER = 77.9245
MEAN_ANOMALY   = 88.4301

EPHEMERIS_TYPE = 0
CLASSIFICATION_TYPE = U
NORAD_CAT_ID   = 66177
ELEMENT_SET_NO = 999
REV_AT_EPOCH   = 538
BSTAR          = -.51558E-2
MEAN_MOTION_DOT = -.278366E-2
MEAN_MOTION_DDOT = 0

CCSDS_OMM_VERS = 2.0
CREATION_DATE  = 
ORIGINATOR     = 

OBJECT_NAME    = STARLINK-35363
OBJECT_ID      = 2025-243B
CENTER_NAME    = EARTH
REF_FRAME      = TEME
TIME_SYSTEM    = UTC
MEAN_ELEMENT_THEORY = SGP/SGP4

EPOCH          = 2025-11-22T20:00:01.999008
MEAN_MOTION    = 15.48985012
ECCENTRICITY   = .000164
INCLINATION    = 53.1595
RA_OF_ASC_NODE = 21.9734
ARG_OF_PERICENTER = 90.2936
MEAN_ANOMALY   = 72.2060

EPHEMERIS_TYPE = 0
CLASSIFICATION_TYPE = U
NORAD_CAT_ID   = 66178
ELEMENT_SET_NO = 999
REV_AT_EPOCH   = 544
BSTAR          = -.41955E-1
MEAN_MOTION_DOT = -.2054203E-1
MEAN_MOTION_DDOT = 0

CCSDS_OMM_VERS = 2.0
CREATION_DATE  = 
ORIGINATOR     = 

OBJECT_NAME    = STARLINK-35346
OBJECT_ID      = 2025-243C
CENTER_NAME    = EARTH
REF_FRAME      = TEME
TIME_SYSTEM    = UTC
MEAN_ELEMENT_THEORY = SGP/SGP4

EPOCH          = 2025-11-22T20:00:01.999008
MEAN_MOTION    = 15.47952382
ECCENTRICITY   = .000121
INCLINATION    = 53.1599
RA_OF_ASC_NODE = 21.9790
ARG_OF_PERICENTER = 72.6475
MEAN_ANOMALY   = 87.1873

EPHEMERIS_TYPE = 0
CLASSIFICATION_TYPE = U
NORAD_CAT_ID   = 66179
ELEMENT_SET_NO = 999
REV_AT_EPOCH   = 538
BSTAR          = -.44809E-1
MEAN_MOTION_DOT = -.2108149E-1
MEAN_MOTION_DDOT = 0

CCSDS_OMM_VERS = 2.0
CREATION_DATE  = 
ORIGINATOR     = 

OBJECT_NAME    = STARLINK-35335
OBJECT_ID      = 2025-243D
CENTER_NAME    = EARTH
REF_FRAME      = TEME
TIME_SYSTEM    = UTC
MEAN_ELEMENT_THEORY = SGP/SGP4

EPOCH          = 2025-11-22T20:00:01.999008
MEAN_MOTION    = 15.46951800
ECCENTRICITY   = .0001363
INCLINATION    = 53.1596
RA_OF_ASC_NODE = 21.9861
ARG_OF_PERICENTER = 73.5234
MEAN_ANOMALY   = 82.9206

EPHEMERIS_TYPE = 0
CLASSIFICATION_TYPE = U
NORAD_CAT_ID   = 66180
ELEMENT_SET_NO = 999
REV_AT_EPOCH   = 538
BSTAR          = -.45659E-1
MEAN_MOTION_DOT = -.2077959E-1
MEAN_MOTION_DDOT = 0

